IRIDIUM 171             
1 43929U 19002H   24085.93946371  .00000811  00000+0  28255-3 0  9994
2 43929  86.4008 333.6812 0002153  81.4078 278.7361 14.34226125272397
IRIDIUM 170             
1 43930U 19002J   24085.93156596  .00003774  00000+0  59462-3 0  9993
2 43930  86.6128 333.5188 0002165  87.8607 272.2858 14.72242489279604
IRIDIUM 167             
1 43931U 19002K   24085.93313388  .00000210  00000+0  67886-4 0  9990
2 43931  86.3997 333.4831 0002199  83.1835 276.9611 14.34218336272398
IRIDIUM 181             
1 56726U 23068S   24085.85783229  .00001467  00000+0  42761-3 0  9998
2 56726  86.8686  23.1572 0002600  79.9879 280.1616 14.43576519 45117
IRIDIUM 177             
1 56727U 23068T   24085.80469538  .00006864  00000+0  89822-3 0  9993
2 56727  86.2035 354.9507 0002857  81.0390 279.1155 14.80281761 46041
IRIDIUM 174             
1 56728U 23068U   24085.79935970  .00006439  00000+0  84355-3 0  9994
2 56728  86.2039 355.0501 0002494  90.9763 269.1744 14.80230545 46049
IRIDIUM 178             
1 56729U 23068V   24085.92915714  .00006324  00000+0  82822-3 0  9994
2 56729  86.5846   8.4933 0002448  94.5987 265.5514 14.80244496 46061
IRIDIUM 179             
1 56730U 23068W   24085.85609587  .00005152  00000+0  67449-3 0  9992
2 56730  86.6854  11.6055 0002302  91.5593 268.5892 14.80227109 46056
